HTV-X1                  
1 66174U 25241A   26073.34423285  .00013198  00000+0  56794-3 0  9992
2 66174  51.6357  50.7100 0005732 187.3443 172.7451 15.22910005 21660
SZ-21 MODULE            
1 66515U 25246C   26082.18487837  .00043706  00000+0  35991-3 0  9995
2 66515  41.4734 120.2206 0000654 218.7155 141.3640 15.69572241 20198
SHENZHOU-22             
1 66645U 25272A   26082.15076295  .00028902  00000+0  33220-3 0  9991
2 66645  41.4659 126.2122 0005010   0.2981 359.7860 15.61367292279109
SOYUZ-MS 28             
1 66664U 25275A   26082.19556657  .00017435  00000+0  32964-3 0  9997
2 66664  51.6344   5.5946 0006192 222.9473 137.1033 15.48483260557713
DUPLEX                  
1 66906U 98067XS  26082.13188610  .00036468  00000+0  49886-3 0  9997
2 66906  51.6301   2.1718 0003129 170.5661 189.5390 15.57057045 17221
ISS OBJECT XT           
1 66907U 98067XT  26082.12744157  .00252347  00000+0  16874-2 0  9997
2 66907  51.6254 356.8640 0005369 166.1185 193.9962 15.73983745 17296
ISS OBJECT XU           
1 66908U 98067XU  26082.12443542  .00262204  00000+0  17376-2 0  9993
2 66908  51.6246 356.8387 0005602 166.2607 193.8545 15.74162534 17298
SILVERSAT               
1 66909U 98067XV  26082.15877842  .00329127  00000+0  17851-2 0  9997
2 66909  51.6225 355.5605 0006241 171.9705 188.1397 15.78521272 17314
ISS OBJECT XW           
1 66910U 98067XW  26082.12988061  .00223399  00000+0  15746-2 0  9997
2 66910  51.6244 356.8723 0005781 166.1394 193.9764 15.72839352 17294
ISS OBJECT XX           
1 66911U 98067XX  26082.12127221  .00504349  00000+0  21092-2 0  9999
2 66911  51.6200 354.5306 0007749 174.8625 185.2459 15.83698112 17315
ISS OBJECT XY           
1 66912U 98067XY  26082.18264591  .00117705  00000+0  11004-2 0  9996
2 66912  51.6273 358.7506 0004031 168.1265 191.9827 15.66386367 17265
KNACKSAT-2              
1 67683U 98067XZ  26081.98877831  .00049560  00000+0  78354-3 0  9991
2 67683  51.6322   5.7163 0009876 233.1676 126.8409 15.52915753  6853
